JILIN-1 07              
1 43159U 18008E   24189.95198918  .00006597  00000+0  31537-3 0  9991
2 43159  97.2428 222.3305 0012858  65.0835 295.1735 15.19253977356728
JILIN-1 08              
1 43160U 18008F   24190.16342477  .00006701  00000+0  32286-3 0  9998
2 43160  97.2435 222.2536 0009871  77.7172 282.5167 15.19004545356744
LEMUR-2-URAMCHANSOL     
1 43183U 18014D   24189.24361576  .00015953  00000+0  81086-3 0  9999
2 43183  97.5865  93.9165 0009603 272.1253  87.8880 15.16909977351882
LEMUR-2-KADI            
1 43184U 18014E   24189.85529710  .00011424  00000+0  62989-3 0  9993
2 43184  97.5664  92.3335 0008613 255.1999 104.8278 15.14113924351899
S-NET D                 
1 43186U 18014G   24190.20003953  .00005058  00000+0  36198-3 0  9991
2 43186  97.5898  91.6736 0008749 300.2968  59.7392 15.04842089351665
S-NET B                 
1 43187U 18014H   24190.20239802  .00005162  00000+0  36930-3 0  9996
2 43187  97.5905  91.6270 0009601 294.1327  65.8894 15.04834576351663
S-NET A                 
1 43188U 18014J   24189.27025315  .00004966  00000+0  35547-3 0  9998
2 43188  97.5912  90.8253 0009562 298.6889  61.3376 15.04832635351527
S-NET C                 
1 43189U 18014K   24189.67253781  .00005470  00000+0  39103-3 0  9996
2 43189  97.5925  91.1724 0011266 287.7477  72.2520 15.04830349350133
GOMX-4B                 
1 43196U 18015E   24189.88107869  .00065928  00000+0  62668-3 0  9999
2 43196  97.6053   5.1269 0007521 226.2571 133.8067 15.66625905358760
GOMX-4A                 
1 43197U 18015F   24189.94101071  .00153578  00000+0  73268-3 0  9993
2 43197  97.5943  10.7531 0007156 218.3897 141.6863 15.82378586359152
PAZ                     
1 43215U 18020A   24190.16689728  .00003315  00000+0  16105-3 0  9996
2 43215  97.4448 196.7331 0001767  86.8809 273.2628 15.19138249353377
GOES 17                 
1 43226U 18022A   24189.67223927 -.00000094  00000+0  00000+0 0  9994
2 43226   0.0077 151.1919 0000858   7.2601 264.9484  1.00270723 23326
LKW-4                   
1 43236U 18025A   24189.94665249  .00009847  00000+0  41360-3 0  9997
2 43236  97.5621 322.3027 0003618 127.8395 232.3169 15.23648119350860
ZHUHAI-1 OHS-01         
1 43439U 18040A   24190.18035259  .00047554  00000+0  74019-3 0  9993
2 43439  97.1218 236.9349 0005885 200.4708 159.6311 15.53744786344801
ZHUHAI-1 OVS-02         
1 43440U 18040B   24190.17393865  .00013428  00000+0  49116-3 0  9997
2 43440  97.1180 235.6664 0004962 279.6046  80.4634 15.28163980344694
ZHUHAI-1 OHS-02         
1 43441U 18040C   24190.17555223  .00015289  00000+0  52847-3 0  9998
2 43441  97.1377 239.2971 0011991 245.2757 114.7236 15.29932232344708
ZHUHAI-1 OHS-04         
1 43443U 18040E   24190.17062586  .00039330  00000+0  60226-3 0  9998
2 43443  97.1314 238.4000 0003219 184.6711 175.4514 15.54248752344826
GAOFEN-6                
1 43484U 18048A   24190.17726907  .00001086  00000+0  16278-3 0  9990
2 43484  97.8632 264.0107 0009966 309.9012  50.1322 14.76567019328769
LUOJIA-1 01             
1 43485U 18048B   24190.16785785  .00002789  00000+0  36275-3 0  9999
2 43485  97.8750 268.5490 0008855 284.5487  75.4744 14.81433952328970
PAKTES 1A               
1 43529U 18056A   24190.22727439  .00003185  00000+0  31317-3 0  9999
2 43529  98.0381 312.7652 0022617 301.7747  58.1268 14.92701869325891
PRSS 1                  
1 43530U 18056B   24189.88836034  .00001386  00000+0  19309-3 0  9991
2 43530  97.8642 263.9304 0001523 106.5055 253.6324 14.79302603323450
HAIYANG-1C              
1 43609U 18068A   24190.18987730  .00000229  00000+0  97581-4 0  9990
2 43609  98.6052 258.4414 0009765  43.5873 316.6082 14.34123193305464
SSTL S1-4               
1 43618U 18071A   24190.19154205 -.00000269  00000+0 -19604-4 0  9994
2 43618  97.6012  76.0589 0006093  29.3205 330.8356 14.94883605316942
HAIYANG-2B              
1 43655U 18081A   24190.16888226  .00000028  00000+0  70117-4 0  9997
2 43655  99.3356 198.3565 0001605  42.0331 318.0944 13.79307898287182
CZ-4B R/B               
1 43656U 18081B   24189.59469624  .00000338  00000+0  11835-3 0  9995
2 43656  99.4424  37.8701 0206817 148.0442 213.3478 14.31255586297771
CFOSAT                  
1 43662U 18083A   24190.19312827  .00005543  00000+0  28792-3 0  9997
2 43662  97.3738 204.2043 0002206 137.2032 222.9373 15.16488178315087
2018-083B               
1 43663U 18083B   24190.18371004  .00073963  00000+0  89079-3 0  9995
2 43663  97.3183 223.9921 0006385 156.3136 203.8416 15.60547786316496
2018-083C               
1 43664U 18083C   24190.19091666  .00026256  00000+0  58603-3 0  9992
2 43664  97.3395 217.2513 0007585 171.4198 188.7181 15.43500151316164
2018-083D               
1 43665U 18083D   24190.17251076  .00028196  00000+0  60736-3 0  9999
2 43665  97.3394 218.2451 0008331 173.0236 187.1130 15.44534691316217
2018-083G               
1 43668U 18083G   24190.19631695  .00126102  00000+0  10858-2 0  9998
2 43668  97.3245 223.8843 0007101 161.9658 198.1857 15.68876336316668
TEN-KOH                 
1 43677U 18084G   24189.94116433  .00002455  00000+0  22303-3 0  9991
2 43677  98.0652 344.0852 0013152 311.7796  48.2299 14.96197974309824
