OBJECT_NAME,OBJECT_ID,EPOCH,MEAN_MOTION,ECCENTRICITY,INCLINATION,RA_OF_ASC_NODE,ARG_OF_PERICENTER,MEAN_ANOMALY,EPHEMERIS_TYPE,CLASSIFICATION_TYPE,NORAD_CAT_ID,ELEMENT_SET_NO,REV_AT_EPOCH,BSTAR,MEAN_MOTION_DOT,MEAN_MOTION_DDOT
JILIN-1 07,2018-008E,2024-07-07T22:50:51.865152,15.19253977,.0012858,97.2428,222.3305,65.0835,295.1735,0,U,43159,999,35672,.31537E-3,.6597E-4,0
JILIN-1 08,2018-008F,2024-07-08T03:55:19.900128,15.19004545,.0009871,97.2435,222.2536,77.7172,282.5167,0,U,43160,999,35674,.32286E-3,.6701E-4,0
LEMUR-2-URAMCHANSOL,2018-014D,2024-07-07T05:50:48.401664,15.16909977,.0009603,97.5865,93.9165,272.1253,87.8880,0,U,43183,999,35188,.81086E-3,.15953E-3,0
LEMUR-2-KADI,2018-014E,2024-07-07T20:31:37.669440,15.14113924,.0008613,97.5664,92.3335,255.1999,104.8278,0,U,43184,999,35189,.62989E-3,.11424E-3,0
S-NET D,2018-014G,2024-07-08T04:48:03.415392,15.04842089,.0008749,97.5898,91.6736,300.2968,59.7392,0,U,43186,999,35166,.36198E-3,.5058E-4,0
S-NET B,2018-014H,2024-07-08T04:51:27.188928,15.04834576,.0009601,97.5905,91.6270,294.1327,65.8894,0,U,43187,999,35166,.3693E-3,.5162E-4,0
S-NET A,2018-014J,2024-07-07T06:29:09.872160,15.04832635,.0009562,97.5912,90.8253,298.6889,61.3376,0,U,43188,999,35152,.35547E-3,.4966E-4,0
S-NET C,2018-014K,2024-07-07T16:08:27.266784,15.04830349,.0011266,97.5925,91.1724,287.7477,72.2520,0,U,43189,999,35013,.39103E-3,.547E-4,0
GOMX-4B,2018-015E,2024-07-07T21:08:45.198816,15.66625905,.0007521,97.6053,5.1269,226.2571,133.8067,0,U,43196,999,35876,.62668E-3,.65928E-3,0
GOMX-4A,2018-015F,2024-07-07T22:35:03.325344,15.82378586,.0007156,97.5943,10.7531,218.3897,141.6863,0,U,43197,999,35915,.73268E-3,.153578E-2,0
PAZ,2018-020A,2024-07-08T04:00:19.924992,15.19138249,.0001767,97.4448,196.7331,86.8809,273.2628,0,U,43215,999,35337,.16105E-3,.3315E-4,0
GOES 17,2018-022A,2024-07-07T16:08:01.472928,1.00270723,.0000858,0.0077,151.1919,7.2601,264.9484,0,U,43226,999,2332,0,-.94E-6,0
LKW-4,2018-025A,2024-07-07T22:43:10.775136,15.23648119,.0003618,97.5621,322.3027,127.8395,232.3169,0,U,43236,999,35086,.4136E-3,.9847E-4,0
ZHUHAI-1 OHS-01,2018-040A,2024-07-08T04:19:42.463776,15.53744786,.0005885,97.1218,236.9349,200.4708,159.6311,0,U,43439,999,34480,.74019E-3,.47554E-3,0
ZHUHAI-1 OVS-02,2018-040B,2024-07-08T04:10:28.299360,15.28163980,.0004962,97.1180,235.6664,279.6046,80.4634,0,U,43440,999,34469,.49116E-3,.13428E-3,0
ZHUHAI-1 OHS-02,2018-040C,2024-07-08T04:12:47.712672,15.29932232,.0011991,97.1377,239.2971,245.2757,114.7236,0,U,43441,999,34470,.52847E-3,.15289E-3,0
ZHUHAI-1 OHS-04,2018-040E,2024-07-08T04:05:42.074304,15.54248752,.0003219,97.1314,238.4000,184.6711,175.4514,0,U,43443,999,34482,.60226E-3,.3933E-3,0
GAOFEN-6,2018-048A,2024-07-08T04:15:16.047648,14.76567019,.0009966,97.8632,264.0107,309.9012,50.1322,0,U,43484,999,32876,.16278E-3,.1086E-4,0
LUOJIA-1 01,2018-048B,2024-07-08T04:01:42.918240,14.81433952,.0008855,97.8750,268.5490,284.5487,75.4744,0,U,43485,999,32897,.36275E-3,.2789E-4,0
PAKTES 1A,2018-056A,2024-07-08T05:27:16.507296,14.92701869,.0022617,98.0381,312.7652,301.7747,58.1268,0,U,43529,999,32589,.31317E-3,.3185E-4,0
PRSS 1,2018-056B,2024-07-07T21:19:14.333376,14.79302603,.0001523,97.8642,263.9304,106.5055,253.6324,0,U,43530,999,32345,.19309E-3,.1386E-4,0
HAIYANG-1C,2018-068A,2024-07-08T04:33:25.398720,14.34123193,.0009765,98.6052,258.4414,43.5873,316.6082,0,U,43609,999,30546,.97581E-4,.229E-5,0
SSTL S1-4,2018-071A,2024-07-08T04:35:49.233120,14.94883605,.0006093,97.6012,76.0589,29.3205,330.8356,0,U,43618,999,31694,-.19604E-4,-.269E-5,0
HAIYANG-2B,2018-081A,2024-07-08T04:03:11.427264,13.79307898,.0001605,99.3356,198.3565,42.0331,318.0944,0,U,43655,999,28718,.70117E-4,.28E-6,0
CZ-4B R/B,2018-081B,2024-07-07T14:16:21.755136,14.31255586,.0206817,99.4424,37.8701,148.0442,213.3478,0,U,43656,999,29777,.11835E-3,.338E-5,0
CFOSAT,2018-083A,2024-07-08T04:38:06.282528,15.16488178,.0002206,97.3738,204.2043,137.2032,222.9373,0,U,43662,999,31508,.28792E-3,.5543E-4,0
2018-083B,2018-083B,2024-07-08T04:24:32.547456,15.60547786,.0006385,97.3183,223.9921,156.3136,203.8416,0,U,43663,999,31649,.89079E-3,.73963E-3,0
2018-083C,2018-083C,2024-07-08T04:34:55.199424,15.43500151,.0007585,97.3395,217.2513,171.4198,188.7181,0,U,43664,999,31616,.58603E-3,.26256E-3,0
2018-083D,2018-083D,2024-07-08T04:08:24.929664,15.44534691,.0008331,97.3394,218.2451,173.0236,187.1130,0,U,43665,999,31621,.60736E-3,.28196E-3,0
2018-083G,2018-083G,2024-07-08T04:42:41.784480,15.68876336,.0007101,97.3245,223.8843,161.9658,198.1857,0,U,43668,999,31666,.10858E-2,.126102E-2,0
TEN-KOH,2018-084G,2024-07-07T22:35:16.598112,14.96197974,.0013152,98.0652,344.0852,311.7796,48.2299,0,U,43677,999,30982,.22303E-3,.2455E-4,0
